ONEWEB-0029             
1 45445U 20020X   24241.49395879  .00000050  00000+0  10611-3 0  9999
2 45445  87.8999 152.0220 0001762  70.4350 289.6968 13.11419601216454
ONEWEB-0068             
1 45446U 20020Y   24241.46933825 -.00000894  00000+0 -25598-2 0  9993
2 45446  87.8995 152.0125 0001754  71.8644 288.2675 13.11415135216398
ONEWEB-0046             
1 45447U 20020Z   24241.46682802 -.00000305  00000+0 -89705-3 0  9998
2 45447  87.8993 152.0252 0002047  66.7285 293.4058 13.11413883216401
ONEWEB-0063             
1 45448U 20020AA  24241.49565659  .00000103  00000+0  25429-3 0  9999
2 45448  87.8997 152.0195 0002181  71.3810 288.7555 13.11419598216494
ONEWEB-0019             
1 45449U 20020AB  24241.47021681 -.00000401  00000+0 -11679-2 0  9994
2 45449  87.8998 152.0308 0002002  78.5616 281.5737 13.11414531216335
ONEWEB-0094             
1 45450U 20020AC  24241.44662089 -.00000004  00000+0 -43636-4 0  9995
2 45450  87.9171 136.8427 0001794  72.0330 288.0997 13.17648831219692
ONEWEB-0087             
1 45451U 20020AD  24241.50570203  .00000474  00000+0  13020-2 0  9990
2 45451  87.8991 151.9867 0001774  66.5956 293.5358 13.11418775216389
ONEWEB-0082             
1 45452U 20020AE  24241.50244276  .00000425  00000+0  11639-2 0  9999
2 45452  87.8995 151.9940 0001825  76.2913 283.8418 13.11418529216470
ONEWEB-0050             
1 45453U 20020AF  24241.39098397  .00010115  00000+0  10334-2 0  9996
2 45453  88.0069   9.8464 0003662 145.1083 215.0386 14.90504422242378
ONEWEB-0034             
1 45454U 20020AG  24241.44819136  .00000418  00000+0  11428-2 0  9995
2 45454  87.8993 152.0241 0001878  74.1561 285.9774 13.11414526216381
ONEWEB-0060             
1 45455U 20020AH  24241.49070915 -.00000120  00000+0 -37395-3 0  9999
2 45455  87.8999 152.0334 0002072  72.3294 287.8060 13.11419378216346
ONEWEB-0086             
1 45456U 20020AJ  24241.47360518 -.00000515  00000+0 -14896-2 0  9997
2 45456  87.8992 152.0194 0001595  63.5750 296.5542 13.11415304216406
ONEWEB-0088             
1 45457U 20020AK  24241.45158173  .00000282  00000+0  75903-3 0  9994
2 45457  87.8988 151.9862 0001901  71.5112 288.6223 13.11413708216330
ONEWEB-0102             
1 47258U 20100A   24241.43674618  .00000371  00000+0  99662-3 0  9996
2 47258  87.8913 121.6904 0001851  81.7030 278.4308 13.12441037178454
ONEWEB-0109             
1 47259U 20100B   24241.36861453  .00000157  00000+0  40194-3 0  9992
2 47259  87.8915 121.6693 0001837  83.0704 277.0633 13.12440162178273
ONEWEB-0110             
1 47260U 20100C   24241.39457010 -.00000360  00000+0 -10355-2 0  9990
2 47260  87.8909 121.6657 0001694  81.3580 278.7740 13.12443055178442
ONEWEB-0111             
1 47261U 20100D   24241.42539429  .00000459  00000+0  12418-2 0  9999
2 47261  87.8914 121.6590 0001811  79.3510 280.7823 13.12442262178282
ONEWEB-0114             
1 47262U 20100E   24241.37996211 -.00000194  00000+0 -57412-3 0  9992
2 47262  87.8908 121.6808 0002057  86.5839 273.5525 13.12436349178238
ONEWEB-0117             
1 47263U 20100F   24241.37185602  .00000116  00000+0  28700-3 0  9997
2 47263  87.8913 121.6607 0001774  76.8870 283.2457 13.12440122178241
ONEWEB-0118             
1 47264U 20100G   24241.40428859 -.00000479  00000+0 -13664-2 0  9992
2 47264  87.8914 121.6574 0002193  76.8148 283.3225 13.12442675178441
ONEWEB-0119             
1 47265U 20100H   24241.43188346  .00000476  00000+0  12882-2 0  9996
2 47265  87.8913 121.6908 0001720  78.6933 281.4389 13.12441608178422
ONEWEB-0120             
1 47266U 20100J   24241.37847895 -.00000132  00000+0 -40280-3 0  9996
2 47266  87.8915 121.6917 0001928  80.5824 279.5522 13.12439828178446
ONEWEB-0121             
1 47267U 20100K   24241.36699671  .00000223  00000+0  58419-3 0  9995
2 47267  87.8909 121.6813 0001645  78.0330 282.0983 13.12440187178355
ONEWEB-0122             
1 47268U 20100L   24241.36199262  .00000360  00000+0  96600-3 0  9993
2 47268  87.8909 121.6871 0001729  82.0948 278.0377 13.12440471178261
ONEWEB-0123             
1 47269U 20100M   24241.20479192  .00000461  00000+0  12455-2 0  9997
2 47269  87.8915 121.7347 0001858  77.2427 282.8909 13.12441026178383
ONEWEB-0124             
1 47270U 20100N   24241.57462466  .00000360  00000+0  96624-3 0  9994
2 47270  87.8914 121.6577 0001538  74.2682 285.8616 13.12442154178317
ONEWEB-0125             
1 47271U 20100P   24241.39942216 -.00000561  00000+0 -15953-2 0  9991
2 47271  87.8917 121.6526 0001919  67.9068 292.2264 13.12442211178354
ONEWEB-0126             
1 47272U 20100Q   24241.42457768  .00000480  00000+0  12983-2 0  9997
2 47272  87.8910 121.6508 0001872  80.6664 279.4676 13.12442435178420
ONEWEB-0127             
1 47273U 20100R   24241.38644913 -.00000334  00000+0 -96420-3 0  9992
2 47273  87.8914 121.6891 0001850  81.6430 278.4908 13.12440141178449
ONEWEB-0128             
1 47274U 20100S   24241.40915354 -.00000319  00000+0 -92249-3 0  9994
2 47274  87.8922 121.6927 0001506  82.5274 277.6026 13.12442632178464
ONEWEB-0129             
1 47275U 20100T   24241.38807256 -.00000380  00000+0 -10930-2 0  9997
2 47275  87.8914 121.6588 0003148  99.7970 260.3514 13.12440692178393
ONEWEB-0130             
1 47276U 20100U   24241.41566147  .00000168  00000+0  43274-3 0  9993
2 47276  87.8912 121.6602 0001765  82.7889 277.3440 13.12442843178366
ONEWEB-0131             
1 47277U 20100V   24241.41239855 -.00000266  00000+0 -77465-3 0  9997
2 47277  87.8914 121.6777 0001645  79.5940 280.5374 13.12443682178400
ONEWEB-0132             
1 47278U 20100W   24241.36537477  .00000291  00000+0  77420-3 0  9990
2 47278  87.8915 121.6891 0001620  70.1690 289.9613 13.12439762178291
ONEWEB-0133             
1 47279U 20100X   24241.38158359 -.00000238  00000+0 -69593-3 0  9996
2 47279  87.8908 121.6804 0001630  77.8119 282.3192 13.12442641178456
ONEWEB-0134             
1 47280U 20100Y   24241.42699592  .00000477  00000+0  12918-2 0  9993
2 47280  87.8907 121.6584 0001646  86.1787 273.9530 13.12447265178430
ONEWEB-0135             
1 47281U 20100Z   24241.16909427 -.00000286  00000+0 -83016-3 0  9994
2 47281  87.8918 121.7300 0001432  91.9845 268.1448 13.12443782178425
ONEWEB-0136             
1 47282U 20100AA  24241.56974274  .00000224  00000+0  58713-3 0  9997
2 47282  87.8913 121.6176 0001760  93.4765 266.6565 13.12446052178407
ONEWEB-0137             
1 47283U 20100AB  24241.37509954 -.00000048  00000+0 -16805-3 0  9998
2 47283  87.8907 121.6778 0001934  78.5208 281.6138 13.12439992178282
ONEWEB-0138             
1 47284U 20100AC  24241.43026171  .00000484  00000+0  13098-2 0  9993
2 47284  87.8910 121.6791 0001818  82.1952 277.9382 13.12441921178374
ONEWEB-0139             
1 47285U 20100AD  24241.39307195 -.00000403  00000+0 -11543-2 0  9993
2 47285  87.8915 121.6593 0001804  77.9997 282.1333 13.12440426178447
ONEWEB-0140             
1 47286U 20100AE  24241.42377443  .00000412  00000+0  11102-2 0  9990
2 47286  87.8909 121.6562 0001710  82.1947 277.9376 13.12442389178412
ONEWEB-0141             
1 47287U 20100AF  24241.39279544 -.00000387  00000+0 -11104-2 0  9995
2 47287  87.8911 121.6747 0001926  74.0704 286.0636 13.12441135178396
ONEWEB-0142             
1 47288U 20100AG  24241.36130814  .00000369  00000+0  98981-3 0  9996
2 47288  87.8908 121.6621 0002072  81.4303 278.7060 13.12441138178385
ONEWEB-0143             
1 47289U 20100AH  24241.23883738 -.00000376  00000+0 -10815-2 0  9992
2 47289  87.8912 121.7076 0001738  75.9029 284.2293 13.12441133178348
ONEWEB-0144             
1 47290U 20100AJ  24241.21129548  .00000261  00000+0  68983-3 0  9995
2 47290  87.8913 121.6964 0002008  86.3583 273.7775 13.12441110178262
ONEWEB-0145             
1 47291U 20100AK  24241.41079538  .00000009  00000+0 -10848-4 0  9990
2 47291  87.8911 121.6808 0001878  81.6686 278.4656 13.12447967178484
ONEWEB-0146             
1 47292U 20100AL  24241.40753273 -.00000370  00000+0 -10627-2 0  9990
2 47292  87.8914 121.6657 0001496  65.3280 294.8004 13.12443818178395
ONEWEB-0147             
1 47293U 20100AM  24241.37347800  .00000013  00000+0  44634-6 0  9993
2 47293  87.8907 121.6637 0001667  87.5616 272.5703 13.12440111178285
ONEWEB-0115             
1 48042U 21025A   24241.53421702 -.00000260  00000+0 -74678-3 0  9999
2 48042  87.8860  91.1096 0001584  82.1422 277.9887 13.13470888167263
ONEWEB-0152             
1 48043U 21025B   24241.54691447 -.00000123  00000+0 -37247-3 0  9995
2 48043  87.8864  91.1077 0001650  83.7931 276.3386 13.13471904167226
ONEWEB-0153             
1 48044U 21025C   24241.52469776 -.00000223  00000+0 -64496-3 0  9999
2 48044  87.8865  91.1020 0001764  84.5526 275.5804 13.13470324167222
ONEWEB-0154             
1 48045U 21025D   24241.52152358 -.00000131  00000+0 -39357-3 0  9991
2 48045  87.8860  91.1118 0001677  85.3464 274.7856 13.13470560167173
ONEWEB-0116             
1 48046U 21025E   24241.56279432  .00000186  00000+0  47321-3 0  9997
2 48046  87.8867  91.0746 0001541  79.5051 280.6252 13.13470724167329
ONEWEB-0150             
1 48047U 21025F   24241.53739843 -.00000268  00000+0 -76908-3 0  9998
2 48047  87.8862  91.0939 0001864  83.0679 277.0662 13.13470427167216
ONEWEB-0107             
1 48048U 21025G   24241.53898070 -.00000297  00000+0 -84732-3 0  9993
2 48048  87.8858  91.0916 0002028  84.1343 276.0017 13.13470729167195
ONEWEB-0101             
1 48049U 21025H   24241.57866725  .00000291  00000+0  76307-3 0  9991
2 48049  87.8867  91.1047 0001659  85.9077 274.2242 13.13470084167176
ONEWEB-0113             
1 48050U 21025J   24241.55643882 -.00000039  00000+0 -14291-3 0  9994
2 48050  87.8866  91.0903 0001574  81.1885 278.9422 13.13471244167257
ONEWEB-0112             
1 48051U 21025K   24241.54373878 -.00000262  00000+0 -75264-3 0  9994
2 48051  87.8860  91.0883 0001747  81.1617 278.9709 13.13469695167260
